NORAD_CAT_ID,OBJECT_NAME,OBJECT_TYPE,EPOCH,MEAN_MOTION,ECCENTRICITY,INCLINATION,RA_OF_ASC_NODE,ARG_OF_PERICENTER,MEAN_ANOMALY,BSTAR,MEAN_MOTION_DOT,MEAN_MOTION_DDOT,TLE_LINE0,TLE_LINE1,TLE_LINE2,SEMIMAJOR_AXIS,PERIOD,APOGEE,PERIGEE,DECAYED
50836.0,STARLINK-3330,PAYLOAD,2023-04-20 08:41:39,15.08843529,0.0001172,53.2172,232.1755,93.796,266.3167,0.00014296,1.988e-05,0.0,0 STARLINK-3330,1 50836U 22001AK  23110.36226050  .00001988  00000-0  14296-3 0  9999,2 50836  53.2172 232.1755 0001172  93.7960 266.3167 15.08843529 70995,6917.87,95.437,540.545,538.924,0.0
50836.0,STARLINK-3330,PAYLOAD,2023-04-20 15:03:11,15.08851886,0.0001243,53.2173,230.9864,95.2132,264.9002,0.00021376,3.117e-05,0.0,0 STARLINK-3330,1 50836U 22001AK  23110.62721306  .00003117  00000-0  21376-3 0  9995,2 50836  53.2173 230.9864 0001243  95.2132 264.9002 15.08851886 72393,6917.844,95.437,540.569,538.849,0.0
50836.0,STARLINK-3330,PAYLOAD,2023-04-21 00:35:30,15.0884167,0.0001311,53.2169,229.2021,111.9705,248.1426,-7.7943e-06,-4.12e-06,0.0,0 STARLINK-3330,1 50836U 22001AK  23111.02466078 -.00000412  00000-0 -77943-5 0  9992,2 50836  53.2169 229.2021 0001311 111.9705 248.1426 15.08841670 71092,6917.875,95.437,540.647,538.833,0.0
50836.0,STARLINK-3330,PAYLOAD,2023-04-21 16:29:23,15.08829299,0.0001287,53.2171,226.2313,103.327,256.7866,3.3816e-06,-2.34e-06,0.0,0 STARLINK-3330,1 50836U 22001AK  23111.68707629 -.00000234  00000-0  33816-5 0  9996,2 50836  53.2171 226.2313 0001287 103.3270 256.7866 15.08829299 72558,6917.913,95.438,540.668,538.888,0.0
50836.0,STARLINK-3330,PAYLOAD,2023-04-22 00:26:18,15.08839888,0.0001066,53.2172,224.7428,99.9893,260.1219,1.3812e-05,-6.8e-07,0.0,0 STARLINK-3330,1 50836U 22001AK  23112.01826817 -.00000068  00000-0  13812-4 0  9993,2 50836  53.2172 224.7428 0001066  99.9893 260.1219 15.08839888 72607,6917.881,95.438,540.483,539.008,0.0
50836.0,STARLINK-3330,PAYLOAD,2023-04-22 16:20:08,15.08850573,0.0001129,53.216,221.7679,105.5862,254.5255,-4.7148e-05,-1.038e-05,0.0,0 STARLINK-3330,1 50836U 22001AK  23112.68065911 -.00001038  00000-0 -47148-4 0  9994,2 50836  53.2160 221.7679 0001129 105.5862 254.5255 15.08850573 72701,6917.848,95.437,540.494,538.932,0.0
50836.0,STARLINK-3330,PAYLOAD,2023-04-23 08:14:02,15.08822931,0.0001388,53.2164,218.7949,94.8354,265.2796,6.3848e-05,7.28e-06,0.0,0 STARLINK-3330,1 50836U 22001AK  23113.34307975  .00000728  00000-0  63848-4 0  9995,2 50836  53.2164 218.7949 0001388  94.8354 265.2796 15.08822931 72801,6917.933,95.439,540.758,538.837,0.0
50836.0,STARLINK-3330,PAYLOAD,2023-04-23 16:10:57,15.08831601,0.0001613,53.2155,217.3065,87.7755,272.3422,8.0398e-05,9.91e-06,0.0,0 STARLINK-3330,1 50836U 22001AK  23113.67427906  .00000991  00000-0  80398-4 0  9999,2 50836  53.2155 217.3065 0001613  87.7755 272.3422 15.08831601 71495,6917.906,95.438,540.887,538.655,0.0
50836.0,STARLINK-3330,PAYLOAD,2023-04-24 06:29:24,15.0887296,0.0001431,53.2179,214.6319,88.0113,272.1043,0.00064259,9.963e-05,0.0,0 STARLINK-3330,1 50836U 22001AK  23114.27042110  .00009963  00000-0  64259-3 0  9991,2 50836  53.2179 214.6319 0001431  88.0113 272.1043 15.08872960 71583,6917.78,95.435,540.635,538.655,0.0
50836.0,STARLINK-3330,PAYLOAD,2023-04-24 14:26:18,15.08898649,0.0001154,53.2158,213.1435,91.0989,269.0136,0.0011699,0.0001841,0.0,0 STARLINK-3330,1 50836U 22001AK  23114.60160756  .00018410  00000-0  11699-2 0  9991,2 50836  53.2158 213.1435 0001154  91.0989 269.0136 15.08898649 72996,6917.701,95.434,540.364,538.768,0.0
50836.0,STARLINK-3330,PAYLOAD,2023-04-24 23:58:38,15.08863758,0.0001367,53.2154,211.3618,83.9571,276.1577,0.00036665,5.556e-05,0.0,0 STARLINK-3330,1 50836U 22001AK  23114.99905446  .00005556  00000-0  36665-3 0  9994,2 50836  53.2154 211.3618 0001367  83.9571 276.1577 15.08863758 73057,6917.808,95.436,540.618,538.727,0.0
50836.0,STARLINK-3330,PAYLOAD,2023-04-25 11:06:21,15.08823145,0.0001344,53.2167,209.28,94.3138,265.8008,-0.00063777,-0.00010419,0.0,0 STARLINK-3330,1 50836U 22001AK  23115.46274581 -.00010419  00000-0 -63777-3 0  9996,2 50836  53.2167 209.2800 0001344  94.3138 265.8008 15.08823145 73128,6917.932,95.439,540.727,538.867,0.0
50836.0,STARLINK-3330,PAYLOAD,2023-04-26 12:32:32,15.08832075,0.000132,53.2146,204.5201,112.7676,247.3456,0.00065507,0.00010151,0.0,0 STARLINK-3330,1 50836U 22001AK  23116.52259300  .00010151  00000-0  65507-3 0  9990,2 50836  53.2146 204.5201 0001320 112.7676 247.3456 15.08832075 71924,6917.905,95.438,540.683,538.856,0.0
50836.0,STARLINK-3330,PAYLOAD,2023-04-27 12:23:19,15.08840526,0.0001209,53.2151,200.06,99.1995,260.9134,0.00042398,6.466e-05,0.0,0 STARLINK-3330,1 50836U 22001AK  23117.51619740  .00006466  00000-0  42398-3 0  9995,2 50836  53.2151 200.0600 0001209  99.1995 260.9134 15.08840526 72073,6917.879,95.438,540.58,538.907,0.0
50836.0,STARLINK-3330,PAYLOAD,2023-04-27 13:58:42,15.08844088,0.0001168,53.2152,199.7633,90.0509,270.0617,0.00048504,7.441e-05,0.0,0 STARLINK-3330,1 50836U 22001AK  23117.58243696  .00007441  00000-0  48504-3 0  9994,2 50836  53.2152 199.7633 0001168  90.0509 270.0617 15.08844088 73446,6917.868,95.437,540.541,538.925,0.0
50836.0,STARLINK-3330,PAYLOAD,2023-04-28 10:38:42,15.08848549,0.000117,53.2152,195.898,84.6963,275.4162,0.00024933,3.683e-05,0.0,0 STARLINK-3330,1 50836U 22001AK  23118.44355272  .00003683  00000-0  24933-3 0  9998,2 50836  53.2152 195.8980 0001170  84.6963 275.4162 15.08848549 72218,6917.854,95.437,540.529,538.91,0.0
50836.0,STARLINK-3330,PAYLOAD,2023-04-28 21:46:24,15.08848674,0.0001224,53.2155,193.8163,83.7173,276.3959,0.00019073,2.75e-05,0.0,0 STARLINK-3330,1 50836U 22001AK  23118.90723028  .00002750  00000-0  19073-3 0  9990,2 50836  53.2155 193.8163 0001224  83.7173 276.3959 15.08848674 73646,6917.854,95.437,540.566,538.872,0.0
50836.0,STARLINK-3330,PAYLOAD,2023-04-29 12:04:53,15.08839788,0.0001385,53.2162,191.1463,109.9467,250.1674,-3.087e-05,-7.79e-06,0.0,0 STARLINK-3330,1 50836U 22001AK  23119.50339276 -.00000779  00000-0 -30870-4 0  9995,2 50836  53.2162 191.1463 0001385 109.9467 250.1674 15.08839788 72372,6917.881,95.438,540.704,538.788,0.0
50836.0,STARLINK-3330,PAYLOAD,2023-04-29 15:15:39,15.08842804,0.0001425,53.2161,190.5436,82.0635,278.0519,5.702e-05,6.2e-06,0.0,0 STARLINK-3330,1 50836U 22001AK  23119.63587244  .00000620  00000-0  57020-4 0  9998,2 50836  53.2161 190.5436 0001425  82.0635 278.0519 15.08842804 73750,6917.872,95.437,540.723,538.751,0.0
50836.0,STARLINK-3330,PAYLOAD,2023-04-29 23:12:35,15.08831541,0.0001176,53.2157,189.061,60.6353,299.4756,-0.00014578,-2.607e-05,0.0,0 STARLINK-3330,1 50836U 22001AK  23119.96707634 -.00002607  00000-0 -14578-3 0  9990,2 50836  53.2157 189.0610 0001176  60.6353 299.4756 15.08831541 73806,6917.906,95.438,540.585,538.958,0.0
50836.0,STARLINK-3330,PAYLOAD,2023-04-30 13:31:03,15.08842394,0.000135,53.2148,186.3795,111.9706,248.143,0.00010488,1.382e-05,0.0,0 STARLINK-3330,1 50836U 22001AK  23120.56323284  .00001382  00000-0  10488-3 0  9996,2 50836  53.2148 186.3795 0001350 111.9706 248.1430 15.08842394 73893,6917.873,95.437,540.672,538.804,0.0
50836.0,STARLINK-3330,PAYLOAD,2023-05-01 11:46:27,15.08835756,0.0001558,53.215,182.2155,126.573,233.5406,5.4093e-05,5.73e-06,0.0,0 STARLINK-3330,1 50836U 22001AK  23121.49059963  .00000573  00000-0  54093-4 0  9991,2 50836  53.2150 182.2155 0001558 126.5730 233.5406 15.08835756 74032,6917.893,95.438,540.836,538.681,0.0
50836.0,STARLINK-3330,PAYLOAD,2023-05-02 11:37:14,15.08849385,0.0001356,53.2155,177.7581,99.7858,260.3287,0.00024081,3.548e-05,0.0,0 STARLINK-3330,1 50836U 22001AK  23122.48419597  .00003548  00000-0  24081-3 0  9992,2 50836  53.2155 177.7581 0001356  99.7858 260.3287 15.08849385 74181,6917.852,95.437,540.655,538.779,0.0
50836.0,STARLINK-3330,PAYLOAD,2023-05-02 22:44:56,15.08844434,0.0001356,53.2154,175.678,83.098,277.0166,0.00020558,2.986e-05,0.0,0 STARLINK-3330,1 50836U 22001AK  23122.94787902  .00002986  00000-0  20558-3 0  9991,2 50836  53.2154 175.6780 0001356  83.0980 277.0166 15.08844434 74259,6917.867,95.437,540.67,538.794,0.0
50836.0,STARLINK-3330,PAYLOAD,2023-05-03 09:52:39,15.08837396,0.0001279,53.2153,173.5959,86.6094,273.5044,8.8421e-05,1.12e-05,0.0,0 STARLINK-3330,1 50836U 22001AK  23123.41156258  .00001120  00000-0  88421-4 0  9991,2 50836  53.2153 173.5959 0001279  86.6094 273.5044 15.08837396 74325,6917.888,95.438,540.638,538.869,0.0
50836.0,STARLINK-3330,PAYLOAD,2023-05-04 12:54:11,15.0884589,0.00012,53.2154,168.5393,90.1429,269.9701,1.7894e-05,-3e-08,0.0,0 STARLINK-3330,1 50836U 22001AK  23124.53763652 -.00000003  00000-0  17894-4 0  9993,2 50836  53.2154 168.5393 0001200  90.1429 269.9701 15.08845890 74493,6917.862,95.437,540.558,538.897,0.0
50836.0,STARLINK-3330,PAYLOAD,2023-05-05 09:34:13,15.08832282,0.0001159,53.2153,164.6731,88.8523,271.2602,4.0169e-05,3.51e-06,0.0,0 STARLINK-3330,1 50836U 22001AK  23125.39876630  .00000351  00000-0  40169-4 0  9995,2 50836  53.2153 164.6731 0001159  88.8523 271.2602 15.08832282 74629,6917.904,95.438,540.571,538.967,0.0
50836.0,STARLINK-3330,PAYLOAD,2023-05-05 19:06:32,15.08837016,0.0001141,53.2155,162.8898,88.3524,271.7599,4.7068e-05,4.61e-06,0.0,0 STARLINK-3330,1 50836U 22001AK  23125.79620468  .00000461  00000-0  47068-4 0  9992,2 50836  53.2155 162.8898 0001141  88.3524 271.7599 15.08837016 73328,6917.89,95.438,540.544,538.965,0.0
50836.0,STARLINK-3330,PAYLOAD,2023-05-06 07:49:37,15.08838083,0.0001149,53.2157,160.5117,89.7124,270.4,6.814e-05,7.97e-06,0.0,0 STARLINK-3330,1 50836U 22001AK  23126.32612567  .00000797  00000-0  68140-4 0  9999,2 50836  53.2157 160.5117 0001149  89.7124 270.4000 15.08838083 73405,6917.886,95.438,540.546,538.956,0.0
50836.0,STARLINK-3330,PAYLOAD,2023-05-06 23:43:28,15.08840886,0.0001166,53.2158,157.5377,96.3669,263.7456,0.00015124,2.12e-05,0.0,0 STARLINK-3330,1 50836U 22001AK  23126.98852187  .00002120  00000-0  15124-3 0  9990,2 50836  53.2158 157.5377 0001166  96.3669 263.7456 15.08840886 74862,6917.878,95.437,540.549,538.936,0.0
